COMMENT,ORIGINATOR,NORAD_CAT_ID,OBJECT_NAME,OBJECT_TYPE,CLASSIFICATION_TYPE,INTLDES,EPOCH,EPOCH_MICROSECONDS,MEAN_MOTION,ECCENTRICITY,INCLINATION,RA_OF_ASC_NODE,ARG_OF_PERICENTER,MEAN_ANOMALY,EPHEMERIS_TYPE,ELEMENT_SET_NO,REV_AT_EPOCH,BSTAR,MEAN_MOTION_DOT,MEAN_MOTION_DDOT,FILE,TLE_LINE0,TLE_LINE1,TLE_LINE2,OBJECT_ID,OBJECT_NUMBER,SEMIMAJOR_AXIS,PERIOD,APOGEE,PERIGEE,DECAYED
"GENERATED VIA SPACETRACK.ORG API","18 SPCS","56232","FENGYUN 3G","PAYLOAD","U","23055A","2023-10-08 19:58:06","431232","15.54523529","0.0007744","49.9996","11.5684","88.9986","271.1869","0","999","2731","0.00076347","0.00051259","0","4028564","0 FENGYUN 3G","1 56232U 23055A   23281.83201888  .00051259  00000-0  76347-3 0  9999","2 56232  49.9996  11.5684 0007744  88.9986 271.1869 15.54523529 27319","2023-055A","56232","6781.675","92.633","408.792","398.288","0"
"GENERATED VIA SPACETRACK.ORG API","18 SPCS","56232","FENGYUN 3G","PAYLOAD","U","23055A","2023-10-09 02:08:21","155136","15.54549823","0.0007749","49.9995","10.2405","89.5962","270.5894","0","999","2735","0.00080024","0.00053821","0","4028864","0 FENGYUN 3G","1 56232U 23055A   23282.08913374  .00053821  00000-0  80024-3 0  9991","2 56232  49.9995  10.2405 0007749  89.5962 270.5894 15.54549823 27351","2023-055A","56232","6781.599","92.631","408.719","398.208","0"
"GENERATED VIA SPACETRACK.ORG API","18 SPCS","56232","FENGYUN 3G","PAYLOAD","U","23055A","2023-10-09 08:18:35","492832","15.54578595","0.0007723","49.9993","8.9118","90.6609","269.5243","0","999","2739","0.00077836","0.00052382","0","4029137","0 FENGYUN 3G","1 56232U 23055A   23282.34624413  .00052382  00000-0  77836-3 0  9991","2 56232  49.9993   8.9118 0007723  90.6609 269.5243 15.54578595 27395","2023-055A","56232","6781.515","92.630","408.617","398.143","0"
"GENERATED VIA SPACETRACK.ORG API","18 SPCS","56232","FENGYUN 3G","PAYLOAD","U","23055A","2023-10-09 14:28:49","437408","15.54604412","0.00077","49.9994","7.5832","92.0902","268.0948","0","999","2743","0.00077515","0.00052212","0","4029150","0 FENGYUN 3G","1 56232U 23055A   23282.60334997  .00052212  00000-0  77515-3 0  9991","2 56232  49.9994   7.5832 0007700  92.0902 268.0948 15.54604412 27430","2023-055A","56232","6781.440","92.628","408.527","398.083","0"
"GENERATED VIA SPACETRACK.ORG API","18 SPCS","56232","FENGYUN 3G","PAYLOAD","U","23055A","2023-10-09 19:06:29","618496","15.54629036","0.0007708","49.9995","6.5871","92.7835","267.4015","0","999","2746","0.0008285","0.00055915","0","4029470","0 FENGYUN 3G","1 56232U 23055A   23282.79617614  .00055915  00000-0  82850-3 0  9992","2 56232  49.9995   6.5871 0007708  92.7835 267.4015 15.54629036 27463","2023-055A","56232","6781.368","92.627","408.460","398.006","0"
"GENERATED VIA SPACETRACK.ORG API","18 SPCS","56232","FENGYUN 3G","PAYLOAD","U","23055A","2023-10-09 19:06:29","618496","15.54629036","0.0007708","49.9995","6.5871","92.7835","267.4015","0","999","2746","0.0008285","0.00055915","0","4029504","0 FENGYUN 3G","1 56232U 23055A   23282.79617614  .00055915  00000-0  82850-3 0  9992","2 56232  49.9995   6.5871 0007708  92.7835 267.4015 15.54629036 27463","2023-055A","56232","6781.368","92.627","408.460","398.006","0"
"GENERATED VIA SPACETRACK.ORG API","18 SPCS","56232","FENGYUN 3G","PAYLOAD","U","23055A","2023-10-10 10:32:01","718592","15.5470455","0.000765","49.9998","3.2657","94.9818","265.2024","0","999","2756","0.00078579","0.00053136","0","4030101","0 FENGYUN 3G","1 56232U 23055A   23283.43890878  .00053136  00000-0  78579-3 0  9995","2 56232  49.9998   3.2657 0007650  94.9818 265.2024 15.54704550 27565","2023-055A","56232","6781.149","92.622","408.201","397.826","0"
"GENERATED VIA SPACETRACK.ORG API","18 SPCS","56232","FENGYUN 3G","PAYLOAD","U","23055A","2023-10-10 12:04:34","768416","15.54712861","0.0007644","49.9999","2.9336","95.4812","264.7029","0","999","2757","0.00083477","0.0005652","0","4030143","0 FENGYUN 3G","1 56232U 23055A   23283.50318019  .00056520  00000-0  83477-3 0  9998","2 56232  49.9999   2.9336 0007644  95.4812 264.7029 15.54712861 27573","2023-055A","56232","6781.124","92.622","408.173","397.806","0"
"GENERATED VIA SPACETRACK.ORG API","18 SPCS","56232","FENGYUN 3G","PAYLOAD","U","23055A","2023-10-10 18:14:46","804416","15.54741101","0.0007677","49.9999","1.6047","96.6542","263.53","0","999","2761","0.00082292","0.00055764","0","4030405","0 FENGYUN 3G","1 56232U 23055A   23283.76026394  .00055764  00000-0  82292-3 0  9991","2 56232  49.9999   1.6047 0007677  96.6542 263.5300 15.54741101 27610","2023-055A","56232","6781.042","92.620","408.113","397.702","0"
"GENERATED VIA SPACETRACK.ORG API","18 SPCS","56232","FENGYUN 3G","PAYLOAD","U","23055A","2023-10-10 19:47:19","739328","15.54746396","0.000767","50","1.2727","96.7249","263.4592","0","999","2762","0.00076494","0.00051785","0","4030441","0 FENGYUN 3G","1 56232U 23055A   23283.82453402  .00051785  00000-0  76494-3 0  9998","2 56232  50.0000   1.2727 0007670  96.7249 263.4592 15.54746396 27629","2023-055A","56232","6781.027","92.620","408.093","397.691","0"
"GENERATED VIA SPACETRACK.ORG API","18 SPCS","56232","FENGYUN 3G","PAYLOAD","U","23055A","2023-10-11 01:57:31","242240","15.54775719","0.0007681","50","359.9442","97.1673","263.0168","0","999","2766","0.00082131","0.00055725","0","4030730","0 FENGYUN 3G","1 56232U 23055A   23284.08161160  .00055725  00000-0  82131-3 0  9997","2 56232  50.0000 359.9442 0007681  97.1673 263.0168 15.54775719 27664","2023-055A","56232","6780.942","92.618","408.015","397.598","0"
"GENERATED VIA SPACETRACK.ORG API","18 SPCS","56232","FENGYUN 3G","PAYLOAD","U","23055A","2023-10-11 09:40:15","50208","15.54809531","0.0007689","50","358.2829","98.612","261.572","0","999","2771","0.00069433","0.00047042","0","4031064","0 FENGYUN 3G","1 56232U 23055A   23284.40295197  .00047042  00000-0  69433-3 0  9994","2 56232  50.0000 358.2829 0007689  98.6120 261.5720 15.54809531 27719","2023-055A","56232","6780.843","92.616","407.922","397.495","0"
"GENERATED VIA SPACETRACK.ORG API","18 SPCS","56232","FENGYUN 3G","PAYLOAD","U","23055A","2023-10-11 14:17:53","58336","15.54829503","0.0007712","50","357.286","99.6375","260.5464","0","999","2774","0.0007518","0.0005104","0","4031093","0 FENGYUN 3G","1 56232U 23055A   23284.59575299  .00051040  00000-0  75180-3 0  9997","2 56232  50.0000 357.2860 0007712  99.6375 260.5464 15.54829503 27741","2023-055A","56232","6780.785","92.615","407.880","397.421","0"
"GENERATED VIA SPACETRACK.ORG API","18 SPCS","56232","FENGYUN 3G","PAYLOAD","U","23055A","2023-10-11 14:17:53","58336","15.54829503","0.0007712","50","357.286","99.6375","260.5464","0","999","2774","0.0007518","0.0005104","0","4031385","0 FENGYUN 3G","1 56232U 23055A   23284.59575299  .00051040  00000-0  75180-3 0  9997","2 56232  50.0000 357.2860 0007712  99.6375 260.5464 15.54829503 27741","2023-055A","56232","6780.785","92.615","407.880","397.421","0"
"GENERATED VIA SPACETRACK.ORG API","18 SPCS","56232","FENGYUN 3G","PAYLOAD","U","23055A","2023-10-11 14:17:53","44512","15.54830253","0.0007692","49.9999","357.2859","99.8605","260.3231","0","999","2774","0.00076665","0.00052065","0","4037156","0 FENGYUN 3G","1 56232U 23055A   23284.59575283  .00052065  00000-0  76665-3 0  9997","2 56232  49.9999 357.2859 0007692  99.8605 260.3231 15.54830253 27742","2023-055A","56232","6780.783","92.615","407.864","397.432","0"
"GENERATED VIA SPACETRACK.ORG API","18 SPCS","56232","FENGYUN 3G","PAYLOAD","U","23055A","2023-10-11 14:17:53","44512","15.54830253","0.0007692","49.9999","357.2859","99.8605","260.3231","0","999","2774","0.00076665","0.00052065","0","4037312","0 FENGYUN 3G","1 56232U 23055A   23284.59575283  .00052065  00000-0  76665-3 0  9997","2 56232  49.9999 357.2859 0007692  99.8605 260.3231 15.54830253 27742","2023-055A","56232","6780.783","92.615","407.864","397.432","0"
"GENERATED VIA SPACETRACK.ORG API","18 SPCS","56232","FENGYUN 3G","PAYLOAD","U","23055A","2023-10-11 14:17:53","54016","15.54830053","0.0007706","50","357.2861","99.653","260.5309","0","999","2774","0.00076474","0.00051933","0","4039107","0 FENGYUN 3G","1 56232U 23055A   23284.59575294  .00051933  00000-0  76474-3 0  9990","2 56232  50.0000 357.2861 0007706  99.6530 260.5309 15.54830053 27748","2023-055A","56232","6780.784","92.615","407.874","397.423","0"
"GENERATED VIA SPACETRACK.ORG API","18 SPCS","56232","FENGYUN 3G","PAYLOAD","U","23055A","2023-10-11 14:17:53","54016","15.54830053","0.0007706","50","357.2861","99.653","260.5309","0","999","2774","0.00076474","0.00051933","0","4040067","0 FENGYUN 3G","1 56232U 23055A   23284.59575294  .00051933  00000-0  76474-3 0  9990","2 56232  50.0000 357.2861 0007706  99.6530 260.5309 15.54830053 27748","2023-055A","56232","6780.784","92.615","407.874","397.423","0"
"GENERATED VIA SPACETRACK.ORG API","18 SPCS","56232","FENGYUN 3G","PAYLOAD","U","23055A","2023-10-18 22:24:42","364224","15.5263564","0.0003792","49.9987","319.4955","296.6748","63.3831","0","999","2888","0.00071776","0.0004487","0","4040456","0 FENGYUN 3G","1 56232U 23055A   23291.93382366  .00044870  00000-0  71776-3 0  9994","2 56232  49.9987 319.4955 0003792 296.6748  63.3831 15.52635640 28882","2023-055A","56232","6787.171","92.746","411.610","406.463","0"
"GENERATED VIA SPACETRACK.ORG API","18 SPCS","56232","FENGYUN 3G","PAYLOAD","U","23055A","2023-10-19 04:35:24","189216","15.52657696","0.0003752","49.9986","318.1692","297.6465","62.4121","0","999","2892","0.00071555","0.00044766","0","4040745","0 FENGYUN 3G","1 56232U 23055A   23292.19125219  .00044766  00000-0  71555-3 0  9994","2 56232  49.9986 318.1692 0003752 297.6465  62.4121 15.52657696 28920","2023-055A","56232","6787.107","92.744","411.518","406.425","0"
